NORAD_CAT_ID,OBJECT_NAME,OBJECT_TYPE,EPOCH,MEAN_MOTION,ECCENTRICITY,INCLINATION,RA_OF_ASC_NODE,ARG_OF_PERICENTER,MEAN_ANOMALY,BSTAR,MEAN_MOTION_DOT,MEAN_MOTION_DDOT,TLE_LINE0,TLE_LINE1,TLE_LINE2,SEMIMAJOR_AXIS,PERIOD,APOGEE,PERIGEE,DECAYED
53567.0,STARLINK-4585,PAYLOAD,2022-08-24 14:00:01,15.90179556,0.0040142,53.2174,131.3921,56.2693,45.1162,-0.003875,-0.01288637,0.00047663,0 STARLINK-4585,1 53567U 22101AS  22236.58334491 -.01288637  47663-3 -38750-2 0  9995,2 53567  53.2174 131.3921 0040142  56.2693  45.1162 15.90179556   773,6679.917,90.556,328.596,274.967,0.0
53567.0,STARLINK-4585,PAYLOAD,2022-08-25 06:00:02,15.88478454,0.0032007,53.2171,128.0156,57.5938,260.4608,-0.0045854999999999,-0.01359196,0.00051695,0 STARLINK-4585,1 53567U 22101AS  22237.25002315 -.01359196  51695-3 -45855-2 0  9990,2 53567  53.2171 128.0156 0032007  57.5938 260.4608 15.88478454   874,6684.685,90.653,327.946,285.154,0.0
53567.0,STARLINK-4585,PAYLOAD,2022-08-25 12:00:00,15.87827898,0.0030307,53.2175,126.7494,58.2024,249.943,-0.0047734,-0.01362633,0.00051623,0 STARLINK-4585,1 53567U 22101AS  22237.50001157 -.01362633  51623-3 -47734-2 0  9990,2 53567  53.2175 126.7494 0030307  58.2024 249.9430 15.87827898   912,6686.511,90.69,328.641,288.111,0.0
53567.0,STARLINK-4585,PAYLOAD,2022-08-25 14:00:01,15.87578947,0.0029533,53.2174,126.3274,57.7595,6.9856,-0.0046045,-0.0129617999999999,0.00047019,0 STARLINK-4585,1 53567U 22101AS  22237.58334491 -.01296180  47019-3 -46045-2 0  9999,2 53567  53.2174 126.3274 0029533  57.7595   6.9856 15.87578947  1304,6687.21,90.704,328.824,289.326,0.0
53567.0,STARLINK-4585,PAYLOAD,2022-08-25 18:00:00,15.87176213,0.0027643,53.2176,125.486,58.5591,239.1553,-0.0049613,-0.01361638,0.00051247,0 STARLINK-4585,1 53567U 22101AS  22237.75001157 -.01361638  51247-3 -49613-2 0  9991,2 53567  53.2176 125.4860 0027643  58.5591 239.1553 15.87176213   956,6688.340999999999,90.727,328.695,291.717,0.0
53567.0,STARLINK-4585,PAYLOAD,2022-08-25 22:00:00,15.86727788,0.0026101999999999,53.2176,124.6452,57.6346,112.8041,-0.0049729,-0.01330367,0.00048922,0 STARLINK-4585,1 53567U 22101AS  22237.91667824 -.01330367  48922-3 -49729-2 0  9997,2 53567  53.2176 124.6452 0026102  57.6346 112.8041 15.86727788  1308,6689.601,90.753,328.927,294.005,0.0
53567.0,STARLINK-4585,PAYLOAD,2022-08-26 12:00:00,15.85230121,0.0020367,53.2174,121.7024,59.0832,203.8154,-0.0055948,-0.01212498,0.0,0 STARLINK-4585,1 53567U 22101AS  22238.50001157 -.01212498  00000-0 -55948-2 0  9990,2 53567  53.2174 121.7024 0020367  59.0832 203.8154 15.85230121  1071,6693.814,90.839,329.3119999999999,302.046,0.0
53567.0,STARLINK-4585,PAYLOAD,2022-08-26 14:00:01,15.84987136,0.001946,53.2172,121.282,58.32899999999999,320.4513,-0.005452,-0.01170857,0.0,0 STARLINK-4585,1 53567U 22101AS  22238.58335648 -.01170857  00000-0 -54520-2 0  9990,2 53567  53.2172 121.2820 0019460  58.3290 320.4513 15.84987136  1305,6694.498000000001,90.852,329.39,303.335,0.0
53567.0,STARLINK-4585,PAYLOAD,2022-08-26 22:00:00,15.84113017,0.0016775,53.2172,119.6066,57.5293,63.7569,-0.0056413,-0.01156685,0.0,0 STARLINK-4585,1 53567U 22101AS  22238.91667824 -.01156685  00000-0 -56413-2 0  9997,2 53567  53.2172 119.6066 0016775  57.5293  63.7569 15.84113017  1305,6696.96,90.903,330.06,307.591,0.0
53567.0,STARLINK-4585,PAYLOAD,2022-08-27 14:00:01,15.82401502,0.0010102,53.2175,116.2561,55.5657,267.7278,-0.0064123,-0.0121635,0.0,0 STARLINK-4585,1 53567U 22101AS  22239.58334491 -.01216350  00000-0 -64123-2 0  9995,2 53567  53.2175 116.2561 0010102  55.5657 267.7278 15.82401502  1301,6701.788000000001,91.001,330.4240000000001,316.883,0.0
53567.0,STARLINK-4585,PAYLOAD,2022-08-27 20:00:01,15.81756643,0.0008318999999999,53.2176,115.0042,51.36,256.6095,-0.006669,-0.01223696,0.0,0 STARLINK-4585,1 53567U 22101AS  22239.83334491 -.01223696  00000-0 -66690-2 0  9995,2 53567  53.2176 115.0042 0008319  51.3600 256.6095 15.81756643  1281,6703.61,91.038,331.052,319.898,0.0
53567.0,STARLINK-4585,PAYLOAD,2022-08-27 22:00:00,15.81510961,0.0007629,53.2176,114.5872,48.0586,14.6834,-0.0064512,-0.0117507,0.0,0 STARLINK-4585,1 53567U 22101AS  22239.91667824 -.01175070  00000-0 -64512-2 0  9996,2 53567  53.2176 114.5872 0007629  48.0586  14.6834 15.81510961  1302,6704.304,91.052,331.284,321.0540000000001,0.0
53567.0,STARLINK-4585,PAYLOAD,2022-08-28 14:00:01,15.79795397,0.0003109,53.2172,111.2494,20.9628,237.5291,-0.0072226,-0.01206378,0.0,0 STARLINK-4585,1 53567U 22101AS  22240.58334491 -.01206378  00000-0 -72226-2 0  9999,2 53567  53.2172 111.2494 0003109  20.9628 237.5291 15.79795397  1305,6709.156999999997,91.151,333.108,328.936,0.0
53567.0,STARLINK-4585,PAYLOAD,2022-08-28 20:00:01,15.79136538,0.0002758,53.2174,110.0025,14.1872,226.6396,-0.0073569,-0.01193489,0.0,0 STARLINK-4585,1 53567U 22101AS  22240.83334491 -.01193489  00000-0 -73569-2 0  9996,2 53567  53.2174 110.0025 0002758  14.1872 226.6396 15.79136538  1445,6711.023,91.189,334.7390000000001,331.037,0.0
53567.0,STARLINK-4585,PAYLOAD,2022-08-28 22:00:00,15.78923073,0.0002813999999999,53.2173,109.5869,9.0988,345.7068,-0.0074653,-0.01198686,0.0,0 STARLINK-4585,1 53567U 22101AS  22240.91667824 -.01198686  00000-0 -74653-2 0  9993,2 53567  53.2173 109.5869 0002814   9.0988 345.7068 15.78923073  1308,6711.628000000002,91.201,335.381,331.6040000000001,0.0
53567.0,STARLINK-4585,PAYLOAD,2022-08-29 12:00:00,15.77403087,0.0003101,53.2178,106.6773,358.70300000000015,72.1428,-0.0079856,-0.0119714,0.0,0 STARLINK-4585,1 53567U 22101AS  22241.50001157 -.01197140  00000-0 -79856-2 0  9994,2 53567  53.2178 106.6773 0003101 358.7030  72.1428 15.77403087  1552,6715.939,91.289,339.886,335.721,0.0
53567.0,STARLINK-4585,PAYLOAD,2022-08-29 14:00:01,15.77186466,0.0003063999999999,53.2175,106.262,6.5225,177.782,-0.0080598,-0.01196583,0.0,0 STARLINK-4585,1 53567U 22101AS  22241.58334491 -.01196583  00000-0 -80598-2 0  9997,2 53567  53.2175 106.2620 0003064   6.5225 177.7820 15.77186466  1308,6716.554,91.302,340.476,336.361,0.0
53567.0,STARLINK-4585,PAYLOAD,2022-08-29 22:00:00,15.76311148,0.000301,53.2175,104.606,347.9758,289.5144,-0.0082892,-0.01184779,0.0,0 STARLINK-4585,1 53567U 22101AS  22241.91667824 -.01184779  00000-0 -82892-2 0  9996,2 53567  53.2175 104.6060 0003010 347.9758 289.5144 15.76311148  1309,6719.04,91.353,342.927,338.88199999999995,0.0
53567.0,STARLINK-4585,PAYLOAD,2022-08-30 06:00:00,15.75448541,0.0002278,53.2172,102.9492,327.6148,42.0147,-0.0086688999999999,-0.011912,0.0,0 STARLINK-4585,1 53567U 22101AS  22242.25001157 -.01191200  00000-0 -86689-2 0  9990,2 53567  53.2172 102.9492 0002278 327.6148  42.0147 15.75448541  1660,6721.4919999999975,91.403,344.88800000000015,341.826,0.0
53567.0,STARLINK-4585,PAYLOAD,2022-08-30 14:00:01,15.74703209,0.0001431,53.2168,101.2945,317.2506,143.4078,-0.010193,-0.0135991,0.0,0 STARLINK-4585,1 53567U 22101AS  22242.58334491 -.01359910  00000-0 -10193-1 0  9996,2 53567  53.2168 101.2945 0001431 317.2506 143.4078 15.74703209  1307,6723.613,91.446,346.44,344.516,0.0
53567.0,STARLINK-4585,PAYLOAD,2022-08-30 20:00:01,15.73786691,0.0001296999999999,53.2174,100.0565,16.8964,61.4892,-0.0050799,-0.00675879,0.0,0 STARLINK-4585,1 53567U 22101AS  22242.83334491 -.00675879  00000-0 -50799-2 0  9995,2 53567  53.2174 100.0565 0001297  16.8964  61.4892 15.73786691  1767,6726.223000000001,91.499,348.96,347.216,0.0
53567.0,STARLINK-4585,PAYLOAD,2022-08-30 22:00:00,15.73681268,8.92e-05,53.2173,99.645,54.6095,136.1328,-0.0046863999999999,-0.00624437,0.0,0 STARLINK-4585,1 53567U 22101AS  22242.91667824 -.00624437  00000-0 -46864-2 0  9995,2 53567  53.2173  99.6450 0000892  54.6095 136.1328 15.73681268  1305,6726.523,91.505,348.98800000000006,347.788,0.0
53567.0,STARLINK-4585,PAYLOAD,2022-08-31 12:00:00,15.73260884,0.0001205,53.2162,96.7578,66.6825,190.0738,-7.641399999999999e-05,-0.00011358,0.0,0 STARLINK-4585,1 53567U 22101AS  22243.50001157 -.00011358  00000-0 -76414-4 0  9990,2 53567  53.2162  96.7578 0001205  66.6825 190.0738 15.73260884  1867,6727.722,91.53,350.397,348.776,0.0
53567.0,STARLINK-4585,PAYLOAD,2022-08-31 14:00:01,15.73348654,0.000128,53.2167,96.3451,65.4918,303.4929,-0.0016784,-0.00231281,0.0,0 STARLINK-4585,1 53567U 22101AS  22243.58334491 -.00231281  00000-0 -16784-2 0  9999,2 53567  53.2167  96.3451 0001280  65.4918 303.4929 15.73348654  1304,6727.471,91.525,350.1980000000001,348.475,0.0
53567.0,STARLINK-4585,PAYLOAD,2022-08-31 20:00:01,15.73229727,0.0001426,53.2158,95.1117,61.4273,284.2904,-0.0010009,-0.00138972,0.0,0 STARLINK-4585,1 53567U 22101AS  22243.83334491 -.00138972  00000-0 -10009-2 0  9994,2 53567  53.2158  95.1117 0001426  61.4273 284.2904 15.73229727  1917,6727.81,91.531,350.635,348.716,0.0
53567.0,STARLINK-4585,PAYLOAD,2022-08-31 22:00:00,15.73205465,0.0001489,53.2158,94.6998,59.8431,38.1112,-0.0009552999999999,-0.00132632,0.0,0 STARLINK-4585,1 53567U 22101AS  22243.91667824 -.00132632  00000-0 -95530-3 0  9992,2 53567  53.2158  94.6998 0001489  59.8431  38.1112 15.73205465  1307,6727.88,91.533,350.746,348.74300000000005,0.0
53567.0,STARLINK-4585,PAYLOAD,2022-09-01 12:00:00,15.73052908,0.0001298,53.2155,91.811,70.6317,92.8226,0.0010967,0.00155188,0.0,0 STARLINK-4585,1 53567U 22101AS  22244.50001157  .00155188  00000-0  10967-2 0  9998,2 53567  53.2155  91.8110 0001298  70.6317  92.8226 15.73052908  2026,6728.315,91.542,351.05300000000005,349.306,0.0
53567.0,STARLINK-4585,PAYLOAD,2022-09-01 14:00:01,15.73069072,0.0001319,53.2159,91.3989,70.7701,204.9374,0.0011414,0.00161779,0.0,0 STARLINK-4585,1 53567U 22101AS  22244.58335648  .00161779  00000-0  11414-2 0  9992,2 53567  53.2159  91.3989 0001319  70.7701 204.9374 15.73069072  1301,6728.268,91.541,351.021,349.246,0.0
53567.0,STARLINK-4585,PAYLOAD,2022-09-01 20:00:01,15.73176186,0.0001293,53.2159,90.1637,59.7479,192.5701,0.00026651,0.00036909,0.0,0 STARLINK-4585,1 53567U 22101AS  22244.83335648  .00036909  00000-0  26651-3 0  9996,2 53567  53.2159  90.1637 0001293  59.7479 192.5701 15.73176186  2074,6727.9630000000025,91.535,350.6980000000001,348.958,0.0
